start=new Date('2022-06-25T00:00:00.000Z').valueOf();
sats=[{"NORAD_CAT_ID":"52115","MEAN_ANOMALY":"290.5141","OBJECT_ID":"2022-029AD","ELEMENT_SET_NO":"999","BSTAR":"-0.00006826500000","COUNTRY_CODE":"US","APOAPSIS":"540.889","CLASSIFICATION_TYPE":"U","MEAN_MOTION_DDOT":"0.0000000000000","GP_ID":"206790401","TLE_LINE2":"2 52115  53.2163  36.4280 0001676  59.8263 290.5141 15.08845308  1300","SEMIMAJOR_AXIS":"6917.864","REF_FRAME":"TEME","CENTER_NAME":"EARTH","EPOCH":"2022-06-24T22:00:01.999584","RCS_SIZE":"LARGE","FILE":"3501798","ARG_OF_PERICENTER":"59.8263","PERIAPSIS":"538.570","TLE_LINE1":"1 52115U 22029AD  22175.91668981 -.00001375  00000-0 -68265-4 0  9993","RA_OF_ASC_NODE":"36.4280","PERIOD":"95.437","MEAN_ELEMENT_THEORY":"SGP4","INCLINATION":"53.2163","REV_AT_EPOCH":"130","MEAN_MOTION_DOT":"-0.00001375","TIME_SYSTEM":"UTC","LAUNCH_DATE":"2022-03-19","SITE":"AFETR","DECAY_DATE":null,"EPHEMERIS_TYPE":"0","OBJECT_NAME":"STARLINK-3685","OBJECT_TYPE":"PAYLOAD","MEAN_MOTION":"15.08845308","ECCENTRICITY":"0.00016760"},{"OBJECT_ID":"2022-029AE","BSTAR":"0.00017832000000","ELEMENT_SET_NO":"999","COUNTRY_CODE":"US","APOAPSIS":"540.967","CLASSIFICATION_TYPE":"U","NORAD_CAT_ID":"52116","MEAN_ANOMALY":"240.1527","CENTER_NAME":"EARTH","MEAN_MOTION_DDOT":"0.0000000000000","GP_ID":"206791066","TLE_LINE2":"2 52116  53.2146  36.4314 0001702  50.1773 240.1527 15.08825558  1304","SEMIMAJOR_AXIS":"6917.925","REF_FRAME":"TEME","TLE_LINE1":"1 52116U 22029AE  22175.91668981  .00002550  00000-0  17832-3 0  9991","PERIOD":"95.438","MEAN_ELEMENT_THEORY":"SGP4","RA_OF_ASC_NODE":"36.4314","INCLINATION":"53.2146","REV_AT_EPOCH":"130","MEAN_MOTION_DOT":"0.00002550","TIME_SYSTEM":"UTC","LAUNCH_DATE":"2022-03-19","EPOCH":"2022-06-24T22:00:01.999584","RCS_SIZE":"LARGE","FILE":"3501798","ARG_OF_PERICENTER":"50.1773","PERIAPSIS":"538.612","OBJECT_TYPE":"PAYLOAD","MEAN_MOTION":"15.08825558","ECCENTRICITY":"0.00017020","SITE":"AFETR","DECAY_DATE":null,"EPHEMERIS_TYPE":"0","OBJECT_NAME":"STARLINK-3735"},{"ECCENTRICITY":"0.00017080","MEAN_MOTION":"15.08830059","OBJECT_TYPE":"PAYLOAD","OBJECT_NAME":"STARLINK-3738","DECAY_DATE":null,"EPHEMERIS_TYPE":"0","SITE":"AFETR","LAUNCH_DATE":"2022-03-19","TIME_SYSTEM":"UTC","MEAN_MOTION_DOT":"-0.00004475","INCLINATION":"53.2177","REV_AT_EPOCH":"130","TLE_LINE1":"1 52117U 22029AF  22175.91668981 -.00004475  00000-0 -26330-3 0  9995","MEAN_ELEMENT_THEORY":"SGP4","PERIOD":"95.438","RA_OF_ASC_NODE":"36.4267","ARG_OF_PERICENTER":"51.1566","PERIAPSIS":"538.594","FILE":"3501798","RCS_SIZE":"LARGE","EPOCH":"2022-06-24T22:00:01.999584","CENTER_NAME":"EARTH","REF_FRAME":"TEME","TLE_LINE2":"2 52117  53.2177  36.4267 0001708  51.1566 339.1424 15.08830059  1300","SEMIMAJOR_AXIS":"6917.911","MEAN_MOTION_DDOT":"0.0000000000000","GP_ID":"206790507","CLASSIFICATION_TYPE":"U","COUNTRY_CODE":"US","APOAPSIS":"540.957","OBJECT_ID":"2022-029AF","BSTAR":"-0.00026330000000","ELEMENT_SET_NO":"999","MEAN_ANOMALY":"339.1424","NORAD_CAT_ID":"52117"},{"CENTER_NAME":"EARTH","MEAN_MOTION_DDOT":"0.0000000000000","GP_ID":"206790613","TLE_LINE2":"2 52118  53.2161  36.4296 0001626  52.9381 277.3569 15.08828049  1308","SEMIMAJOR_AXIS":"6917.917","REF_FRAME":"TEME","OBJECT_ID":"2022-029AG","BSTAR":"0.00002099500000","ELEMENT_SET_NO":"999","COUNTRY_CODE":"US","APOAPSIS":"540.907","CLASSIFICATION_TYPE":"U","NORAD_CAT_ID":"52118","MEAN_ANOMALY":"277.3569","OBJECT_TYPE":"PAYLOAD","MEAN_MOTION":"15.08828049","ECCENTRICITY":"0.00016260","SITE":"AFETR","DECAY_DATE":null,"EPHEMERIS_TYPE":"0","OBJECT_NAME":"STARLINK-3743","TLE_LINE1":"1 52118U 22029AG  22175.91668981  .00000046  00000-0  20995-4 0  9996","PERIOD":"95.438","MEAN_ELEMENT_THEORY":"SGP4","RA_OF_ASC_NODE":"36.4296","INCLINATION":"53.2161","REV_AT_EPOCH":"130","MEAN_MOTION_DOT":"0.00000046","LAUNCH_DATE":"2022-03-19","TIME_SYSTEM":"UTC","EPOCH":"2022-06-24T22:00:01.999584","RCS_SIZE":"LARGE","FILE":"3501798","ARG_OF_PERICENTER":"52.9381","PERIAPSIS":"538.657"},{"REF_FRAME":"TEME","TLE_LINE2":"2 52119  53.2177  36.4274 0001678  50.4752  19.8672 15.08838721 16425","SEMIMAJOR_AXIS":"6917.884","MEAN_MOTION_DDOT":"0.0000000000000","GP_ID":"206761721","CENTER_NAME":"EARTH","MEAN_ANOMALY":"19.8672","NORAD_CAT_ID":"52119","CLASSIFICATION_TYPE":"U","COUNTRY_CODE":"US","APOAPSIS":"540.910","OBJECT_ID":"2022-029AH","BSTAR":"-0.00021260000000","ELEMENT_SET_NO":"999","OBJECT_NAME":"STARLINK-3558","DECAY_DATE":null,"EPHEMERIS_TYPE":"0","SITE":"AFETR","ECCENTRICITY":"0.00016780","MEAN_MOTION":"15.08838721","OBJECT_TYPE":"PAYLOAD","ARG_OF_PERICENTER":"50.4752","PERIAPSIS":"538.588","FILE":"3501587","RCS_SIZE":"LARGE","EPOCH":"2022-06-24T22:00:01.999584","LAUNCH_DATE":"2022-03-19","TIME_SYSTEM":"UTC","MEAN_MOTION_DOT":"-0.00003670","INCLINATION":"53.2177","REV_AT_EPOCH":"1642","TLE_LINE1":"1 52119U 22029AH  22175.91668981 -.00003670  00000-0 -21260-3 0  9990","PERIOD":"95.438","RA_OF_ASC_NODE":"36.4274","MEAN_ELEMENT_THEORY":"SGP4"},{"NORAD_CAT_ID":"52120","MEAN_ANOMALY":"316.0203","APOAPSIS":"541.000","COUNTRY_CODE":"US","BSTAR":"-0.00018437000000","ELEMENT_SET_NO":"999","OBJECT_ID":"2022-029AJ","CLASSIFICATION_TYPE":"U","SEMIMAJOR_AXIS":"6917.906","TLE_LINE2":"2 52120  53.2170  36.4276 0001776  54.2814 316.0203 15.08831633  1300","GP_ID":"206790719","MEAN_MOTION_DDOT":"0.0000000000000","REF_FRAME":"TEME","CENTER_NAME":"EARTH","RCS_SIZE":"LARGE","EPOCH":"2022-06-24T22:00:01.999584","PERIAPSIS":"538.542","ARG_OF_PERICENTER":"54.2814","FILE":"3501798","REV_AT_EPOCH":"130","INCLINATION":"53.2170","PERIOD":"95.438","MEAN_ELEMENT_THEORY":"SGP4","RA_OF_ASC_NODE":"36.4276","TLE_LINE1":"1 52120U 22029AJ  22175.91668981 -.00003221  00000-0 -18437-3 0  9996","LAUNCH_DATE":"2022-03-19","TIME_SYSTEM":"UTC","MEAN_MOTION_DOT":"-0.00003221","SITE":"AFETR","OBJECT_NAME":"STARLINK-3534","EPHEMERIS_TYPE":"0","DECAY_DATE":null,"OBJECT_TYPE":"PAYLOAD","ECCENTRICITY":"0.00017760","MEAN_MOTION":"15.08831633"},{"ECCENTRICITY":"0.00016950","MEAN_MOTION":"15.20586353","OBJECT_TYPE":"PAYLOAD","OBJECT_NAME":"STARLINK-3678","EPHEMERIS_TYPE":"0","DECAY_DATE":null,"SITE":"AFETR","LAUNCH_DATE":"2022-03-19","TIME_SYSTEM":"UTC","MEAN_MOTION_DOT":"-0.00726043","REV_AT_EPOCH":"130","INCLINATION":"53.2174","MEAN_ELEMENT_THEORY":"SGP4","PERIOD":"94.700","RA_OF_ASC_NODE":"26.7949","TLE_LINE1":"1 52121U 22029AK  22175.91668981 -.00726043  00000-0 -35122-1 0  9999","PERIAPSIS":"502.906","ARG_OF_PERICENTER":"41.6019","FILE":"3501798","RCS_SIZE":"LARGE","EPOCH":"2022-06-24T22:00:01.999584","CENTER_NAME":"EARTH","REF_FRAME":"TEME","SEMIMAJOR_AXIS":"6882.208","TLE_LINE2":"2 52121  53.2174  26.7949 0001695  41.6019 321.0759 15.20586353  1303","GP_ID":"206790855","MEAN_MOTION_DDOT":"0.0000000000000","CLASSIFICATION_TYPE":"U","APOAPSIS":"505.239","COUNTRY_CODE":"US","BSTAR":"-0.03512200000000","ELEMENT_SET_NO":"999","OBJECT_ID":"2022-029AK","MEAN_ANOMALY":"321.0759","NORAD_CAT_ID":"52121"},{"MEAN_ANOMALY":"358.2260","NORAD_CAT_ID":"52122","CLASSIFICATION_TYPE":"U","COUNTRY_CODE":"US","APOAPSIS":"540.982","OBJECT_ID":"2022-029AL","BSTAR":"-0.00029960000000","ELEMENT_SET_NO":"999","REF_FRAME":"TEME","TLE_LINE2":"2 52122  53.2168  36.4274 0001753  52.0965 358.2260 15.08832042  1301","SEMIMAJOR_AXIS":"6917.905","MEAN_MOTION_DDOT":"0.0000000000000","GP_ID":"206790961","CENTER_NAME":"EARTH","ARG_OF_PERICENTER":"52.0965","PERIAPSIS":"538.557","FILE":"3501798","RCS_SIZE":"LARGE","EPOCH":"2022-06-24T22:00:01.999584","TIME_SYSTEM":"UTC","LAUNCH_DATE":"2022-03-19","MEAN_MOTION_DOT":"-0.00005052","INCLINATION":"53.2168","REV_AT_EPOCH":"130","TLE_LINE1":"1 52122U 22029AL  22175.91668981 -.00005052  00000-0 -29960-3 0  9995","PERIOD":"95.438","MEAN_ELEMENT_THEORY":"SGP4","RA_OF_ASC_NODE":"36.4274","OBJECT_NAME":"STARLINK-3726","DECAY_DATE":null,"EPHEMERIS_TYPE":"0","SITE":"AFETR","ECCENTRICITY":"0.00017530","MEAN_MOTION":"15.08832042","OBJECT_TYPE":"PAYLOAD"},{"SITE":"AFETR","OBJECT_NAME":"STARLINK-3725","EPHEMERIS_TYPE":"0","DECAY_DATE":null,"OBJECT_TYPE":"PAYLOAD","ECCENTRICITY":"0.00017860","MEAN_MOTION":"15.20983573","RCS_SIZE":"LARGE","EPOCH":"2022-06-24T22:00:01.999584","PERIAPSIS":"501.646","ARG_OF_PERICENTER":"37.5260","FILE":"3501798","REV_AT_EPOCH":"130","INCLINATION":"53.2175","PERIOD":"94.676","MEAN_ELEMENT_THEORY":"SGP4","RA_OF_ASC_NODE":"26.8039","TLE_LINE1":"1 52123U 22029AM  22175.91668981 -.00726890  00000-0 -34757-1 0  9994","LAUNCH_DATE":"2022-03-19","TIME_SYSTEM":"UTC","MEAN_MOTION_DOT":"-0.00726890","SEMIMAJOR_AXIS":"6881.010","TLE_LINE2":"2 52123  53.2175  26.8039 0001786  37.5260 353.9948 15.20983573  1309","GP_ID":"206790402","MEAN_MOTION_DDOT":"0.0000000000000","REF_FRAME":"TEME","CENTER_NAME":"EARTH","NORAD_CAT_ID":"52123","MEAN_ANOMALY":"353.9948","APOAPSIS":"504.103","COUNTRY_CODE":"US","BSTAR":"-0.03475700000000","ELEMENT_SET_NO":"999","OBJECT_ID":"2022-029AM","CLASSIFICATION_TYPE":"U"},{"BSTAR":"-0.00022215000000","ELEMENT_SET_NO":"999","OBJECT_ID":"2022-029AN","APOAPSIS":"540.959","COUNTRY_CODE":"US","CLASSIFICATION_TYPE":"U","NORAD_CAT_ID":"52124","MEAN_ANOMALY":"35.7501","CENTER_NAME":"EARTH","GP_ID":"206791067","MEAN_MOTION_DDOT":"0.0000000000000","SEMIMAJOR_AXIS":"6917.923","TLE_LINE2":"2 52124  53.2169  36.4278 0001692  54.5598  35.7501 15.08825979  1305","REF_FRAME":"TEME","RA_OF_ASC_NODE":"36.4278","PERIOD":"95.438","MEAN_ELEMENT_THEORY":"SGP4","TLE_LINE1":"1 52124U 22029AN  22175.91668981 -.00003820  00000-0 -22215-3 0  9994","REV_AT_EPOCH":"130","INCLINATION":"53.2169","MEAN_MOTION_DOT":"-0.00003820","TIME_SYSTEM":"UTC","LAUNCH_DATE":"2022-03-19","EPOCH":"2022-06-24T22:00:01.999584","RCS_SIZE":"LARGE","FILE":"3501798","PERIAPSIS":"538.618","ARG_OF_PERICENTER":"54.5598","OBJECT_TYPE":"PAYLOAD","MEAN_MOTION":"15.08825979","ECCENTRICITY":"0.00016920","SITE":"AFETR","EPHEMERIS_TYPE":"0","DECAY_DATE":null,"OBJECT_NAME":"STARLINK-3684"}];
